STARLINK-1797
1 46698U 20073AE  26090.32404756  .00081329  00000+0  10318-2 0  9990
2 46698  53.0425 103.9115 0005953  79.6382 280.5301 15.58739206300964
